H1 CPF 01  gfz 2021 09 14 00  7571 tandemx   
H2 1003001  6202 36605    2021 09 14 00 59 42 2021 09 19 00 00 42   120 1 1  0 0 0
H9
10 0 59472  33102.000000  0    1328305.667   -144711.526   6746711.261
10 0 59472  33222.000000  0    1904752.816   -836602.233   6556002.968
10 0 59472  33342.000000  0    2435894.212  -1523584.658   6250064.257
10 0 59472  33462.000000  0    2912646.387  -2192788.624   5834240.722
10 0 59472  33582.000000  0    3327091.184  -2831496.503   5315807.227
10 0 59472  33702.000000  0    3672610.559  -3427386.758   4703846.558
10 0 59472  33822.000000  0    3943996.525  -3968775.233   4009095.825
10 0 59472  33942.000000  0    4137533.634  -4444849.161   3243761.491
10 0 59472  34062.000000  0    4251051.471  -4845888.699   2421306.055
10 0 59472  34182.000000  0    4283946.441  -5163470.497   1556209.139
10 0 59472  34302.000000  0    4237171.175  -5390647.769    663707.450
10 0 59472  34422.000000  0    4113191.381  -5522101.841   -240480.699
10 0 59472  34542.000000  0    3915913.101  -5554262.636  -1140439.710
10 0 59472  34662.000000  0    3650579.794  -5485394.489  -2020346.688
10 0 59472  34782.000000  0    3323642.671  -5315643.452  -2864756.965
10 0 59472  34902.000000  0    2942608.974  -5047047.143  -3658880.983
10 0 59472  35022.000000  0    2515870.457  -4683506.311  -4388845.697
10 0 59472  35142.000000  0    2052517.556  -4230720.025  -5041935.054
10 0 59472  35262.000000  0    1562145.300  -3696086.148  -5606805.209
10 0 59472  35382.000000  0    1054655.517  -3088571.809  -6073671.904
10 0 59472  35502.000000  0     540058.136  -2418557.147  -6434469.394
10 0 59472  35622.000000  0      28275.822  -1697653.985  -6682978.889
10 0 59472  35742.000000  0    -471043.419   -938503.275  -6814925.064
10 0 59472  35862.000000  0    -948702.848   -154555.401  -6828041.412
10 0 59472  35982.000000  0   -1396122.031    640163.248  -6722104.110
10 0 59472  36102.000000  0   -1805487.427   1431294.525  -6498934.977
10 0 59472  36222.000000  0   -2169885.490   2204401.454  -6162373.374
10 0 59472  36342.000000  0   -2483418.297   2945225.595  -5718218.379
10 0 59472  36462.000000  0   -2741299.542   3639947.373  -5174139.263
10 0 59472  36582.000000  0   -2939929.487   4275444.115  -4539555.088
10 0 59472  36702.000000  0   -3076947.500   4839541.765  -3825482.044
10 0 59472  36822.000000  0   -3151259.287   5321253.267  -3044350.189
10 0 59472  36942.000000  0   -3163038.978   5710999.069  -2209794.774
10 0 59472  37062.000000  0   -3113706.769   6000807.587  -1336422.375
10 0 59472  37182.000000  0   -3005879.352   6184487.074   -439553.669
10 0 59472  37302.000000  0   -2843296.453   6257763.401    465048.193
10 0 59472  37422.000000  0   -2630725.435   6218384.306   1361462.224
10 0 59472  37542.000000  0   -2373841.278   6066180.382   2233901.581
10 0 59472  37662.000000  0   -2079087.973   5803081.802   3067000.783
10 0 59472  37782.000000  0   -1753526.433   5433093.374   3846093.014
10 0 59472  37902.000000  0   -1404672.349   4962228.861   4557473.107
10 0 59472  38022.000000  0   -1040327.272   4398405.568   5188641.405
10 0 59472  38142.000000  0    -668406.246   3751301.995   5728522.451
10 0 59472  38262.000000  0    -296768.995   3032183.375   6167655.899
10 0 59472  38382.000000  0      66943.873   2253697.531   6498356.985
10 0 59472  38502.000000  0     415465.713   1429647.786   6714844.809
10 0 59472  38622.000000  0     742047.505    574744.667   6813337.997
10 0 59472  38742.000000  0    1040587.043   -295657.182   6792115.557
10 0 59472  38862.000000  0    1305742.056  -1165833.675   6651546.167
10 0 59472  38982.000000  0    1533025.774  -2019975.110   6394082.536
10 0 59472  39102.000000  0    1718883.230  -2842473.263   6024221.946
10 0 59472  39222.000000  0    1860747.186  -3618208.473   5548432.417
10 0 59472  39342.000000  0    1957072.447  -4332830.756   4975044.493
10 0 59472  39462.000000  0    2007348.640  -4973028.994   4314110.954
10 0 59472  39582.000000  0    2012092.121  -5526786.649   3577236.551
10 0 59472  39702.000000  0    1972814.819  -5983616.957   2777375.600
10 0 59472  39822.000000  0    1891970.307  -6334769.751   1928603.253
10 0 59472  39942.000000  0    1772880.993  -6573406.564   1045865.235
10 0 59472  40062.000000  0    1619645.980  -6694740.721    144709.466
10 0 59472  40182.000000  0    1437031.773  -6696138.281   -758995.341
10 0 59472  40302.000000  0    1230348.170  -6577174.836  -1649350.905
10 0 59472  40422.000000  0    1005312.681  -6339644.081  -2510717.591
10 0 59472  40542.000000  0     767908.440  -5987523.169  -3327995.131
10 0 59472  40662.000000  0     524240.642  -5526895.351  -4086890.523
10 0 59472  40782.000000  0     280391.968  -4965832.337  -4774167.855
10 0 59472  40902.000000  0      42281.810  -4314240.038  -5377874.387
10 0 59472  41022.000000  0    -184467.147  -3583672.768  -5887540.903
10 0 59472  41142.000000  0    -394652.387  -2787119.384  -6294353.159
10 0 59472  41262.000000  0    -583602.616  -1938767.059  -6591292.861
10 0 59472  41382.000000  0    -747274.764  -1053747.301  -6773247.295
10 0 59472  41502.000000  0    -882335.278   -147868.645  -6837088.589
10 0 59472  41622.000000  0    -986224.381    762661.067  -6781720.829
10 0 59472  41742.000000  0   -1057202.927   1661516.946  -6608096.112
10 0 59472  41862.000000  0   -1094381.047   2532542.191  -6319199.756
10 0 59472  41982.000000  0   -1097728.075   3360031.893  -5920005.823
10 0 59472  42102.000000  0   -1068064.087   4129013.713  -5417400.952
10 0 59472  42222.000000  0   -1007032.392   4825518.761  -4820076.604
10 0 59472  42342.000000  0    -917054.092   5436840.091  -4138390.376
10 0 59472  42462.000000  0    -801264.903   5951772.446  -3384195.806
10 0 59472  42582.000000  0    -663434.993   6360827.447  -2570643.855
10 0 59472  42702.000000  0    -507873.428   6656420.715  -1711958.585
10 0 59472  42822.000000  0    -339319.590   6833024.866   -823189.089
10 0 59472  42942.000000  0    -162823.289   6887284.222     80056.724
10 0 59472  43062.000000  0      16383.496   6818087.811    981892.241
10 0 59472  43182.000000  0     193019.380   6626597.342   1866440.818
10 0 59472  43302.000000  0     361886.807   6316227.284   2718124.963
10 0 59472  43422.000000  0     518002.747   5892579.881   3521947.610
10 0 59472  43542.000000  0     656724.363   5363338.538   4263761.487
10 0 59472  43662.000000  0     773866.764   4738122.297   4930524.974
10 0 59472  43782.000000  0     865807.192   4028295.368   5510532.762
10 0 59472  43902.000000  0     929577.030   3246752.098   5993615.831
10 0 59472  44022.000000  0     962937.775   2407675.091   6371315.991
10 0 59472  44142.000000  0     964438.679   1526271.607   6637028.333
10 0 59472  44262.000000  0     933456.474    618493.734   6786110.866
10 0 59472  44382.000000  0     870216.156   -299251.270   6815959.608
10 0 59472  44502.000000  0     775792.282  -1210396.241   6726052.340
10 0 59472  44622.000000  0     652090.620  -2098513.348   6517957.884
10 0 59472  44742.000000  0     501810.325  -2947610.351   6195311.001
10 0 59472  44862.000000  0     328387.312  -3742420.885   5763751.652
10 0 59472  44982.000000  0     135920.445  -4468679.815   5230829.737
10 0 59472  45102.000000  0     -70917.873  -5113382.524   4605880.321
10 0 59472  45222.000000  0    -286986.165  -5665026.476   3899867.675
10 0 59472  45342.000000  0    -506792.526  -6113827.160   3125195.845
10 0 59472  45462.000000  0    -724623.819  -6451901.789   2295491.296
10 0 59472  45582.000000  0    -934681.234  -6673416.493   1425360.865
10 0 59472  45702.000000  0   -1131220.684  -6774696.186    530130.755
10 0 59472  45822.000000  0   -1308694.913  -6754290.594   -374432.638
10 0 59472  45942.000000  0   -1461890.936  -6612993.523  -1272409.785
10 0 59472  46062.000000  0   -1586060.549  -6353817.341  -2148016.604
10 0 59472  46182.000000  0   -1677041.235  -5981923.841  -2985888.898
10 0 59472  46302.000000  0   -1731364.488  -5504512.755  -3771357.308
10 0 59472  46422.000000  0   -1746348.332  -4930670.480  -4490705.918
10 0 59472  46542.000000  0   -1720171.867  -4271184.802  -5131408.625
10 0 59472  46662.000000  0   -1651931.006  -3538331.722  -5682340.439
10 0 59472  46782.000000  0   -1541674.301  -2745639.127  -6133961.796
10 0 59472  46902.000000  0   -1390418.188  -1907631.526  -6478473.386
10 0 59472  47022.000000  0   -1200141.931  -1039561.881  -6709938.871
10 0 59472  47142.000000  0    -973763.151   -157136.145  -6824376.518
10 0 59472  47262.000000  0    -715093.668    723765.942  -6819819.695
10 0 59472  47382.000000  0    -428775.852   1587369.152  -6696346.445
10 0 59472  47502.000000  0    -120201.961   2418277.679  -6456078.149
10 0 59472  47622.000000  0     204583.465   3201743.440  -6103148.700
10 0 59472  47742.000000  0     538998.580   3923925.537  -5643641.720
10 0 59472  47862.000000  0     876052.841   4572134.124  -5085495.058
10 0 59472  47982.000000  0    1208487.608   5135056.903  -4438375.810
10 0 59472  48102.000000  0    1528927.373   5602964.449  -3713523.589
10 0 59472  48222.000000  0    1830038.035   5967887.882  -2923563.885
10 0 59472  48342.000000  0    2104688.870   6223766.235  -2082294.614
10 0 59472  48462.000000  0    2346114.949   6366559.601  -1204447.353
10 0 59472  48582.000000  0    2548075.630   6394323.163   -305426.980
10 0 59472  48702.000000  0    2705004.854   6307239.237    598964.102
10 0 59472  48822.000000  0    2812149.234   6107606.687   1492810.693
10 0 59472  48942.000000  0    2865690.354   5799788.356   2360372.909
10 0 59472  49062.000000  0    2862848.464   5390117.207   3186371.514
10 0 59472  49182.000000  0    2801965.045   4886763.194   3956264.415
10 0 59472  49302.000000  0    2682561.897   4299565.228   4656508.807
10 0 59472  49422.000000  0    2505372.886   3639829.154   5274803.508
10 0 59472  49542.000000  0    2272350.209   2920100.594   5800301.781
99
